OSCAR 7 (AO-7)          
1 07530U 74089B   19045.92094696 -.00000019  00000-0  16425-3 0  9999
2 07530 101.7270  14.9366 0011866 225.5135 143.2316 12.53636801 24774
UOSAT 2 (UO-11)         
1 14781U 84021B   19045.96224524  .00000045  00000-0  11685-4 0  9993
2 14781  97.6243  76.4449 0008746  16.3026 343.8468 14.83063537859425
LUSAT (LO-19)           
1 20442U 90005G   19045.79540552 -.00000013  00000-0  11570-4 0  9995
2 20442  98.6365 348.0903 0012249 150.0033 210.1855 14.32917091518630
ITAMSAT (IO-26)         
1 22826U 93061D   19045.89887469  .00000000  00000-0  17999-4 0  9996
2 22826  98.8866  31.7864 0008831 355.6404   4.4699 14.30384043324453
RADIO ROSTO (RS-15)     
1 23439U 94085A   19045.90192510 -.00000031  00000-0  32945-3 0  9994
2 23439  64.8188 316.3135 0148978 136.9671 306.9472 11.27567643993936
JAS-2 (FO-29)           
1 24278U 96046B   19046.13695604 -.00000002  00000-0  33873-4 0  9993
2 24278  98.5180 216.4207 0350066 200.3523 158.3370 13.53088958111092
TECHSAT 1B (GO-32)      
1 25397U 98043D   19046.41676712 -.00000019  00000-0  10915-4 0  9995
2 25397  98.6772 348.1365 0002153  59.1479 300.9912 14.23660185 70336
ISS (ZARYA)             
1 25544U 98067A   19046.71225100  .00000976  00000-0  22636-4 0  9993
2 25544  51.6407 245.2813 0005765  31.9644  61.3606 15.53263575156387
PCSAT (NO-44)           
1 26931U 01043C   19046.24127828 -.00000038  00000-0  17199-4 0  9996
2 26931  67.0526 322.2399 0005378 269.7567  90.2918 14.30532132907317
SAUDISAT 1C (SO-50)     
1 27607U 02058C   19046.19521835 -.00000020  00000-0  18134-4 0  9995
2 27607  64.5544  67.1631 0081969 279.9602  79.2257 14.75519959868812
CUTE-1 (CO-55)          
1 27844U 03031E   19045.89888613  .00000052  00000-0  43297-4 0  9998
2 27844  98.6865  55.9489 0010381  34.9285 325.2571 14.22159939810653
CUBESAT XI-IV (CO-57)   
1 27848U 03031J   19045.92627423  .00000038  00000-0  36964-4 0  9993
2 27848  98.6945  56.4467 0010436  45.2996 314.9030 14.21757632810527
MOZHAYETS 4 (RS-22)     
1 27939U 03042A   19046.43722714  .00000063  00000-0  19799-4 0  9997
2 27939  98.0187 184.8043 0014357  97.8300 262.4538 14.66753538822471
CUBESAT XI-V            
1 28895U 05043F   19046.04420257  .00000106  00000-0  29088-4 0  9996
2 28895  97.9381 193.1592 0017229  26.5237 333.6844 14.63630423709400
CUTE-1.7+APD II (CO-65) 
1 32785U 08021C   19046.17797013  .00000182  00000-0  25306-4 0  9992
2 32785  97.5478  51.7367 0012006 317.7142  42.3149 14.88249547585317
DELFI-C3 (DO-64)        
1 32789U 08021G   19046.09993366  .00001337  00000-0  94092-4 0  9997
2 32789  97.4816  99.4071 0012430 181.5198 178.5994 15.06651153588354
SEEDS II (CO-66)        
1 32791U 08021J   19046.00038598  .00000204  00000-0  26098-4 0  9991
2 32791  97.5300  57.3884 0011936 292.5399  67.4556 14.90733723585686
YUBILEINY (RS-30)       
1 32953U 08025A   19046.50405661  .00000020  00000-0  75656-4 0  9999
2 32953  82.5008 221.3500 0019572  40.4918 319.7611 12.43087458487009
KKS-1 (KISEKI)          
1 33499U 09002H   19045.90734650  .00000088  00000-0  21023-4 0  9990
2 33499  98.3544 240.6098 0008157 236.4863 123.5567 14.75406373540542
SWISSCUBE               
1 35932U 09051B   19045.98933265  .00000110  00000-0  35885-4 0  9996
2 35932  98.5714 208.4415 0007776 177.1814 182.9428 14.56244041498778
BEESAT-1                
1 35933U 09051C   19046.41232901  .00000089  00000-0  30977-4 0  9997
2 35933  98.5749 210.5701 0005745 186.3982 173.7143 14.56338335498942
ITUPSAT1                
1 35935U 09051E   19045.91795106  .00000074  00000-0  28081-4 0  9991
2 35935  98.5859 210.3070 0008064 187.3465 172.7614 14.55503948498605
XIWANG-1 (HOPE-1)       
1 36122U 09072B   19046.15204731 -.00000047  00000-0 -13681-4 0  9991
2 36122 100.0726  54.3452 0006841 272.4421  87.5921 13.16348038440621
JUGNU                   
1 37839U 11058B   19046.19776455  .00000298  00000-0  17429-4 0  9995
2 37839  19.9626   3.6560 0018996  46.3669  41.2009 14.12641584379777
SRMSAT                  
1 37841U 11058D   19045.43807142  .00000270  00000-0  30717-5 0  9998
2 37841  19.9729  62.4643 0011616 271.9059 201.4484 14.10624185379122
M-CUBED & EXP-1 PRIME   
1 37855U 11061F   19045.76715377  .00000867  00000-0  51423-4 0  9999
2 37855 101.7274 237.6576 0174466  84.0069 278.0994 15.05136718398133
STRAND-1                
1 39090U 13009E   19046.16780485  .00000032  00000-0  26537-4 0  9995
2 39090  98.4993 254.1032 0008193 299.8985  60.1386 14.35070735312671
SOMP                    
1 39134U 13015E   19046.19263809  .00001103  00000-0  60506-4 0  9994
2 39134  64.8628  60.4451 0019072 321.4713  38.5052 15.19812389321822
BEESAT-3                
1 39135U 13015F   19046.49148931  .00000791  00000-0  49424-4 0  9994
2 39135  64.8700  76.0809 0010115 275.1598  84.8374 15.17205042321550
BEESAT-2                
1 39136U 13015G   19046.48294345  .00000818  00000-0  51554-4 0  9992
2 39136  64.8686  79.5609 0010647 287.9286  72.0679 15.16637806321480
ZACUBE-1 (TSHEPISOSAT)  
1 39417U 13066B   19045.93588903  .00000205  00000-0  32036-4 0  9999
2 39417  97.5700  66.3460 0060479  80.0836 280.7197 14.81054209282729
GOMX-1                  
1 39430U 13066Q   19046.46933403  .00000179  00000-0  41983-4 0  9993
2 39430  97.7302  11.2563 0149901 283.0964  75.3540 14.59197624278631
CUBEBUG-2 (LO-74)       
1 39440U 13066AA  19046.55815566  .00000187  00000-0  32845-4 0  9999
2 39440  97.6001  52.2858 0081588 124.4339 236.4617 14.75792567281813
FUNCUBE-1 (AO-73)       
1 39444U 13066AE  19046.54442095  .00000253  00000-0  37419-4 0  9991
2 39444  97.5692  68.7389 0059557  72.7065 288.0653 14.81860766281698
UWE-3                   
1 39446U 13066AG  19045.96098030  .00000199  00000-0  32888-4 0  9998
2 39446  97.5837  58.5715 0071572 103.5804 257.3393 14.78327123280393
SPROUT                  
1 39770U 14029E   19046.51077925  .00000402  00000-0  50764-4 0  9990
2 39770  97.8791 150.6848 0009889 126.3182 233.8952 14.87174234256521
UNISAT-6                
1 40012U 14033C   19046.53035735  .00000153  00000-0  30083-4 0  9996
2 40012  97.7756 278.3071 0059343 134.1478 226.4633 14.73926124250541
DUCHIFAT-1              
1 40021U 14033M   19045.75737762  .00000294  00000-0  35968-4 0  9991
2 40021  97.9219 329.9722 0014351  97.5635 262.7213 14.90521495253080
QB50P1                  
1 40025U 14033R   19046.17791871  .00000235  00000-0  31037-4 0  9991
2 40025  97.9068 326.0654 0013809 104.0897 256.1855 14.88865906252947
NUDT-PHONESAT           
1 40900U 15049B   19046.49049596  .00001856  00000-0  83641-4 0  9994
2 40900  97.4405  57.0649 0011389 255.0882 258.2937 15.22267755188912
ZDPS 2A                 
1 40901U 15049C   19046.44662933  .00000630  00000-0  34761-4 0  9994
2 40901  97.4606  54.0688 0011938 273.5398 190.7089 15.17502121188543
ZDPS 2B                 
1 40902U 15049D   19046.45456730  .00000761  00000-0  41536-4 0  9995
2 40902  97.4532  51.7379 0012034 270.7685 193.9300 15.17280553188520
XW-2A                   
1 40903U 15049E   19046.45379593  .00001587  00000-0  40017-4 0  9997
2 40903  97.3555  88.4345 0012271 227.3908 245.6865 15.41362775191264
KAITUO 1A               
1 40904U 15049F   19046.45449630  .00000252  00000-0  16898-4 0  9996
2 40904  97.4649  50.5981 0013123 276.8762 226.2212 15.15244671188330
2015-049G               
1 40905U 15049G   19046.44085836  .00000158  00000-0  12224-4 0  9994
2 40905  97.4671  48.2930 0014002 270.1965 193.8157 15.14180159188227
XW-2C                   
1 40906U 15049H   19046.41193385  .00000783  00000-0  44797-4 0  9995
2 40906  97.4662  50.5632 0013207 267.6672 231.1485 15.15508369188324
XW-2D                   
1 40907U 15049J   19046.39906093  .00000788  00000-0  44816-4 0  9998
2 40907  97.4634  50.2281 0012567 265.3937 205.0244 15.15683097188334
LILACSAT-2              
1 40908U 15049K   19046.44615286  .00000117  00000-0  10120-4 0  9993
2 40908  97.4761  49.3065 0014291 269.3435 194.6396 15.13700242188160
XW-2F                   
1 40910U 15049M   19046.40782691  .00001085  00000-0  58160-4 0  9998
2 40910  97.4620  51.9942 0013144 258.8159 211.7166 15.17030391188321
XW-2B                   
1 40911U 15049N   19046.35959909  .00000451  00000-0  27198-4 0  9994
2 40911  97.4668  50.8073 0012486 266.0378 200.9859 15.15615086188225
KAITUO 1B               
1 40912U 15049P   19046.50055374  .00000989  00000-0  50041-4 0  9994
2 40912  97.4514  55.4701 0013505 239.6866 271.7954 15.19306808188603
TIANWANG 1C (TW-1C)     
1 40926U 15051B   19046.57406096  .00009373  00000-0  15114-3 0  9997
2 40926  97.1544  93.0180 0010604 103.0603  54.3026 15.53070375191038
TIANWANG 1A (TW-1A)     
1 40928U 15051D   19046.45976727  .00002789  00000-0  71831-4 0  9992
2 40928  97.1606  80.4525 0012066 152.2588 316.0608 15.39988460190203
LAPAN-A2                
1 40931U 15052B   19045.94718320  .00000749  00000-0  15305-4 0  9991
2 40931   5.9984 219.0369 0012381 203.2821 156.7836 14.76598569182947
E-ST@R-II               
1 41459U 16025D   19046.42737213  .00001777  00000-0  94786-4 0  9996
2 41459  98.1096 126.7481 0169787  52.7293 308.9274 15.05089907154000
AAUSAT 4                
1 41460U 16025E   19046.21786042  .00001940  00000-0  10139-3 0  9990
2 41460  98.1056 127.4842 0160206  47.2743 314.1836 15.06811420154077
NUSAT-1 (FRESCO)        
1 41557U 16033B   19046.52359032  .00001072  00000-0  43325-4 0  9995
2 41557  97.4231 134.7554 0014366  19.7858 340.3935 15.26874841151298
BEESAT-4                
1 41619U 16040W   19045.59655486  .00001318  00000-0  59298-4 0  9999
2 41619  97.3846 110.0520 0013136  99.1588 261.1135 15.22771474134976
CAS-2T & KS-1Q          
1 41847U 16066G   19046.51755465  .00000010  00000-0  12800-4 0  9997
2 41847  98.7237  85.1725 0365136 241.2208 115.1852 14.37957632119295
NAYIF-1 (EO-88)         
1 42017U 17008BX  19046.43217355  .00001341  00000-0  56379-4 0  9993
2 42017  97.4187 114.7315 0004922 234.3898 125.6882 15.25143468111136
LILACSAT-1 (LO-90)      
1 42725U 98067ME  19046.37576164  .00141224  18774-4  39153-3 0  9998
2 42725  51.6317 181.7886 0001559 330.7299 122.3289 15.93548050 98922
MAX VALIER SAT          
1 42778U 17036P   19045.78705086  .00000836  00000-0  39874-4 0  9997
2 42778  97.3721 106.0856 0010967 303.2003  56.8181 15.21766006 91394
RADFXSAT (FOX-1B)       
1 43017U 17073E   19045.74566754  .00000346  00000-0  32796-4 0  9990
2 43017  97.7214 331.9777 0258148 201.6971 157.3147 14.78390270 66942
FOX-1D (AO-92)          
1 43137U 18004AC  19046.13621129  .00000887  00000-0  40553-4 0  9990
2 43137  97.5032 114.1387 0008618 339.3199  20.7688 15.23195053 60686
ES'HAIL 2               
1 43700U 18090A   19046.46090927  .00000139  00000-0  00000+0 0  9991
2 43700   0.0217 119.5388 0001465 219.8007 357.5559  1.00270114  1055
FOX-1CLIFF (AO-95)      
1 43770U 18099N   19046.19178911  .00000129  00000-0  17175-4 0  9992
2 43770  97.7589 119.5663 0015207  30.8848 329.3264 14.94676420 10974
ITASAT 1                
1 43786U 18099AE  19046.17280718 -.00000130  00000-0 -65187-5 0  9997
2 43786  97.7605 119.6062 0015816  25.4494 334.7502 14.95062680 10970
JY1SAT (JO-97)          
1 43803U 18099AX  19045.89988945  .00000137  00000-0  17718-4 0  9993
2 43803  97.7563 119.3035 0015827  27.3881 332.8171 14.95175529 10926
